{"fetched_at":"2026-07-15T06:36:03.911Z","source":"https://celestrak.org/NORAD/elements/gp.php?NAME=GLOBAL&FORMAT=JSON","constellation":"blacksky-gen2","records":[{"OBJECT_NAME":"GLOBAL-2","OBJECT_ID":"2018-099BG","EPOCH":"2026-07-14T19:08:17.431008","CLASSIFICATION_TYPE":"U","MEAN_MOTION":15.08824127,"ECCENTRICITY":0.00074179,"INCLINATION":97.3549,"RA_OF_ASC_NODE":231.1627,"ARG_OF_PERICENTER":67.9722,"MEAN_ANOMALY":292.2294,"EPHEMERIS_TYPE":0,"NORAD_CAT_ID":43812,"ELEMENT_SET_NO":999,"REV_AT_EPOCH":41607,"BSTAR":0.00010304074,"MEAN_MOTION_DOT":0.00001562,"MEAN_MOTION_DDOT":0},{"OBJECT_NAME":"GLOBAL-4","OBJECT_ID":"2019-054E","EPOCH":"2026-07-14T09:13:39.468576","CLASSIFICATION_TYPE":"U","MEAN_MOTION":15.67020519,"ECCENTRICITY":0.00052511,"INCLINATION":45.006,"RA_OF_ASC_NODE":79.1632,"ARG_OF_PERICENTER":191.4185,"MEAN_ANOMALY":168.6595,"EPHEMERIS_TYPE":0,"NORAD_CAT_ID":44499,"ELEMENT_SET_NO":999,"REV_AT_EPOCH":38462,"BSTAR":0.00035029508,"MEAN_MOTION_DOT":0.0003803,"MEAN_MOTION_DDOT":0},{"OBJECT_NAME":"GLOBAL-9","OBJECT_ID":"2021-023G","EPOCH":"2026-07-14T10:28:34.109760","CLASSIFICATION_TYPE":"U","MEAN_MOTION":15.47593304,"ECCENTRICITY":0.00033134,"INCLINATION":44.9819,"RA_OF_ASC_NODE":97.2495,"ARG_OF_PERICENTER":164.9695,"MEAN_ANOMALY":195.1294,"EPHEMERIS_TYPE":0,"NORAD_CAT_ID":47971,"ELEMENT_SET_NO":999,"REV_AT_EPOCH":29916,"BSTAR":0.00025409343,"MEAN_MOTION_DOT":0.00013048,"MEAN_MOTION_DDOT":0},{"OBJECT_NAME":"GLOBAL-14","OBJECT_ID":"2021-106A","EPOCH":"2026-07-14T20:03:03.778560","CLASSIFICATION_TYPE":"U","MEAN_MOTION":15.51815876,"ECCENTRICITY":0.00177223,"INCLINATION":42.0034,"RA_OF_ASC_NODE":126.6067,"ARG_OF_PERICENTER":221.701,"MEAN_ANOMALY":138.2484,"EPHEMERIS_TYPE":0,"NORAD_CAT_ID":49469,"ELEMENT_SET_NO":999,"REV_AT_EPOCH":26242,"BSTAR":0.00026659441,"MEAN_MOTION_DOT":0.00016173,"MEAN_MOTION_DDOT":0},{"OBJECT_NAME":"GLOBAL-12","OBJECT_ID":"2021-115BA","EPOCH":"2026-07-14T12:39:15.638112","CLASSIFICATION_TYPE":"U","MEAN_MOTION":15.55307022,"ECCENTRICITY":0.00028592,"INCLINATION":53.1946,"RA_OF_ASC_NODE":272.9118,"ARG_OF_PERICENTER":70.9256,"MEAN_ANOMALY":289.2065,"EPHEMERIS_TYPE":0,"NORAD_CAT_ID":49772,"ELEMENT_SET_NO":999,"REV_AT_EPOCH":26015,"BSTAR":0.00028636433,"MEAN_MOTION_DOT":0.0001933,"MEAN_MOTION_DDOT":0},{"OBJECT_NAME":"GLOBAL-13","OBJECT_ID":"2021-115BB","EPOCH":"2026-07-14T20:13:20.501760","CLASSIFICATION_TYPE":"U","MEAN_MOTION":15.47101599,"ECCENTRICITY":0.00006186,"INCLINATION":53.1976,"RA_OF_ASC_NODE":283.0159,"ARG_OF_PERICENTER":157.3954,"MEAN_ANOMALY":202.7082,"EPHEMERIS_TYPE":0,"NORAD_CAT_ID":49773,"ELEMENT_SET_NO":999,"REV_AT_EPOCH":26004,"BSTAR":0.00023790896,"MEAN_MOTION_DOT":0.00011832,"MEAN_MOTION_DDOT":0},{"OBJECT_NAME":"GLOBAL-17","OBJECT_ID":"2021-120A","EPOCH":"2026-07-14T14:43:41.492352","CLASSIFICATION_TYPE":"U","MEAN_MOTION":15.53698139,"ECCENTRICITY":0.00133494,"INCLINATION":41.9933,"RA_OF_ASC_NODE":245.6865,"ARG_OF_PERICENTER":86.3012,"MEAN_ANOMALY":273.9359,"EPHEMERIS_TYPE":0,"NORAD_CAT_ID":49949,"ELEMENT_SET_NO":999,"REV_AT_EPOCH":25916,"BSTAR":0.00025785739,"MEAN_MOTION_DOT":0.00016705,"MEAN_MOTION_DDOT":0},{"OBJECT_NAME":"GLOBAL-16","OBJECT_ID":"2021-120B","EPOCH":"2026-07-14T14:25:18.366528","CLASSIFICATION_TYPE":"U","MEAN_MOTION":15.5146569,"ECCENTRICITY":0.00114291,"INCLINATION":41.9936,"RA_OF_ASC_NODE":250.024,"ARG_OF_PERICENTER":75.5872,"MEAN_ANOMALY":284.624,"EPHEMERIS_TYPE":0,"NORAD_CAT_ID":49950,"ELEMENT_SET_NO":999,"REV_AT_EPOCH":25910,"BSTAR":0.00024918033,"MEAN_MOTION_DOT":0.00014845,"MEAN_MOTION_DDOT":0},{"OBJECT_NAME":"GLOBAL-18","OBJECT_ID":"2022-034B","EPOCH":"2026-07-14T12:31:55.269408","CLASSIFICATION_TYPE":"U","MEAN_MOTION":15.47203196,"ECCENTRICITY":0.00043883,"INCLINATION":52.9811,"RA_OF_ASC_NODE":125.9036,"ARG_OF_PERICENTER":22.061,"MEAN_ANOMALY":338.0584,"EPHEMERIS_TYPE":0,"NORAD_CAT_ID":52196,"ELEMENT_SET_NO":999,"REV_AT_EPOCH":24119,"BSTAR":0.00026137864,"MEAN_MOTION_DOT":0.00013095,"MEAN_MOTION_DDOT":0},{"OBJECT_NAME":"GLOBAL-19","OBJECT_ID":"2023-041B","EPOCH":"2026-07-14T13:28:25.249440","CLASSIFICATION_TYPE":"U","MEAN_MOTION":15.38671575,"ECCENTRICITY":0.00096005,"INCLINATION":42.0024,"RA_OF_ASC_NODE":42.1761,"ARG_OF_PERICENTER":214.4458,"MEAN_ANOMALY":145.576,"EPHEMERIS_TYPE":0,"NORAD_CAT_ID":55982,"ELEMENT_SET_NO":999,"REV_AT_EPOCH":18614,"BSTAR":0.00020806687,"MEAN_MOTION_DOT":0.00007879,"MEAN_MOTION_DDOT":0},{"OBJECT_NAME":"GLOBAL-5","OBJECT_ID":"2023-041C","EPOCH":"2026-07-14T22:02:49.599168","CLASSIFICATION_TYPE":"U","MEAN_MOTION":15.3869015,"ECCENTRICITY":0.00084599,"INCLINATION":42.0014,"RA_OF_ASC_NODE":39.6173,"ARG_OF_PERICENTER":212.0592,"MEAN_ANOMALY":147.9734,"EPHEMERIS_TYPE":0,"NORAD_CAT_ID":55983,"ELEMENT_SET_NO":999,"REV_AT_EPOCH":18620,"BSTAR":0.00021339077,"MEAN_MOTION_DOT":0.0000809,"MEAN_MOTION_DDOT":0}]}
