GLOBAL-2                
1 43812U 18099BG  26195.79742397  .00001562  00000+0  10304-3 0  9990
2 43812  97.3549 231.1627 0007417  67.9722 292.2294 15.08824127416077
GLOBAL-4                
1 44499U 19054E   26195.38448459  .00038030  00000+0  35030-3 0  9994
2 44499  45.0060  79.1632 0005251 191.4185 168.6595 15.67020519384626
GLOBAL-9                
1 47971U 21023G   26195.43650590  .00013048  00000+0  25409-3 0  9999
2 47971  44.9819  97.2495 0003313 164.9695 195.1294 15.47593304299160
GLOBAL-14               
1 49469U 21106A   26195.83546040  .00016173  00000+0  26659-3 0  9993
2 49469  42.0034 126.6067 0017722 221.7010 138.2484 15.51815876262420
GLOBAL-12               
1 49772U 21115BA  26195.52726433  .00019330  00000+0  28636-3 0  9997
2 49772  53.1946 272.9118 0002859  70.9256 289.2065 15.55307022260158
GLOBAL-13               
1 49773U 21115BB  26195.84259840  .00011832  00000+0  23791-3 0  9992
2 49773  53.1976 283.0159 0000618 157.3954 202.7082 15.47101599260045
GLOBAL-17               
1 49949U 21120A   26195.61367468  .00016705  00000+0  25786-3 0  9994
2 49949  41.9933 245.6865 0013349  86.3012 273.9359 15.53698139259163
GLOBAL-16               
1 49950U 21120B   26195.60090702  .00014845  00000+0  24918-3 0  9998
2 49950  41.9936 250.0240 0011429  75.5872 284.6240 15.51465690259100
GLOBAL-18               
1 52196U 22034B   26195.52216747  .00013095  00000+0  26138-3 0  9991
2 52196  52.9811 125.9036 0004388  22.0610 338.0584 15.47203196241197
GLOBAL-19               
1 55982U 23041B   26195.56140335  .00007879  00000+0  20807-3 0  9999
2 55982  42.0024  42.1761 0009600 214.4458 145.5760 15.38671575186143
GLOBAL-5                
1 55983U 23041C   26195.91862962  .00008090  00000+0  21339-3 0  9993
2 55983  42.0014  39.6173 0008459 212.0592 147.9734 15.38690150186209
